start=new Date('2022-10-14T00:00:00.000Z').valueOf();
sats=[{"EPOCH":"2022-10-13T17:49:31.554912","BSTAR":"0.00020255000000","OBJECT_NAME":"STARLINK-3131","MEAN_MOTION":"15.08842375","RCS_SIZE":"LARGE","REF_FRAME":"TEME","GP_ID":"215028689","ELEMENT_SET_NO":"999","ECCENTRICITY":"0.00020920","TLE_LINE1":"1 49427U 21104V   22286.74272633  .00002937  00000-0  20255-3 0  9996","OBJECT_TYPE":"PAYLOAD","PERIOD":"95.437","MEAN_ANOMALY":"323.7460","TLE_LINE2":"2 49427  53.2192  48.9422 0002092  36.3674 323.7460 15.08842375 50992","INCLINATION":"53.2192","OBJECT_ID":"2021-104V","EPHEMERIS_TYPE":"0","REV_AT_EPOCH":"5099","FILE":"3609636","SEMIMAJOR_AXIS":"6917.873","PERIAPSIS":"538.291","SITE":"AFETR","MEAN_MOTION_DDOT":"0.0000000000000","CLASSIFICATION_TYPE":"U","DECAY_DATE":null,"ARG_OF_PERICENTER":"36.3674","COUNTRY_CODE":"US","MEAN_MOTION_DOT":"0.00002937","TIME_SYSTEM":"UTC","NORAD_CAT_ID":"49427","MEAN_ELEMENT_THEORY":"SGP4","RA_OF_ASC_NODE":"48.9422","LAUNCH_DATE":"2021-11-13","CENTER_NAME":"EARTH","APOAPSIS":"541.185"},{"SITE":"AFETR","SEMIMAJOR_AXIS":"6917.905","PERIAPSIS":"538.537","FILE":"3609209","REV_AT_EPOCH":"5097","EPHEMERIS_TYPE":"0","OBJECT_ID":"2021-104W","COUNTRY_CODE":"US","ARG_OF_PERICENTER":"41.9828","DECAY_DATE":null,"CLASSIFICATION_TYPE":"U","MEAN_MOTION_DDOT":"0.0000000000000","LAUNCH_DATE":"2021-11-13","CENTER_NAME":"EARTH","RA_OF_ASC_NODE":"49.5725","MEAN_ELEMENT_THEORY":"SGP4","MEAN_MOTION_DOT":"0.00002679","TIME_SYSTEM":"UTC","NORAD_CAT_ID":"49428","APOAPSIS":"541.003","MEAN_MOTION":"15.08831982","RCS_SIZE":"LARGE","BSTAR":"0.00018642000000","OBJECT_NAME":"STARLINK-3121","EPOCH":"2022-10-13T14:24:15.077664","ECCENTRICITY":"0.00017820","ELEMENT_SET_NO":"999","GP_ID":"214994371","REF_FRAME":"TEME","TLE_LINE1":"1 49428U 21104W   22286.60017451  .00002679  00000-0  18642-3 0  9997","OBJECT_TYPE":"PAYLOAD","INCLINATION":"53.2183","TLE_LINE2":"2 49428  53.2183  49.5725 0001782  41.9828 318.1300 15.08831982 50975","PERIOD":"95.438","MEAN_ANOMALY":"318.1300"},{"COUNTRY_CODE":"US","ARG_OF_PERICENTER":"44.9409","DECAY_DATE":null,"CLASSIFICATION_TYPE":"U","MEAN_MOTION_DDOT":"0.0000000000000","SITE":"AFETR","SEMIMAJOR_AXIS":"6917.897","PERIAPSIS":"538.421","REV_AT_EPOCH":"5100","FILE":"3609636","OBJECT_ID":"2021-104Y","EPHEMERIS_TYPE":"0","APOAPSIS":"541.102","LAUNCH_DATE":"2021-11-13","CENTER_NAME":"EARTH","RA_OF_ASC_NODE":"48.6585","MEAN_ELEMENT_THEORY":"SGP4","MEAN_MOTION_DOT":"0.00003933","TIME_SYSTEM":"UTC","NORAD_CAT_ID":"49430","ELEMENT_SET_NO":"999","ECCENTRICITY":"0.00019380","GP_ID":"215027688","REF_FRAME":"TEME","MEAN_MOTION":"15.08834703","RCS_SIZE":"LARGE","BSTAR":"0.00026513000000","OBJECT_NAME":"STARLINK-3138","EPOCH":"2022-10-13T19:19:38.108352","INCLINATION":"53.2173","TLE_LINE2":"2 49430  53.2173  48.6585 0001938  44.9409 315.1740 15.08834703 51006","PERIOD":"95.438","MEAN_ANOMALY":"315.1740","TLE_LINE1":"1 49430U 21104Y   22286.80530218  .00003933  00000-0  26513-3 0  9993","OBJECT_TYPE":"PAYLOAD"},{"EPOCH":"2022-10-13T15:11:55.961376","OBJECT_NAME":"STARLINK-3153","BSTAR":"0.00016499000000","RCS_SIZE":"LARGE","MEAN_MOTION":"15.08837748","REF_FRAME":"TEME","GP_ID":"215027938","ELEMENT_SET_NO":"999","ECCENTRICITY":"0.00017000","OBJECT_TYPE":"PAYLOAD","TLE_LINE1":"1 49431U 21104Z   22286.63328659  .00002339  00000-0  16499-3 0  9990","PERIOD":"95.438","MEAN_ANOMALY":"306.9822","INCLINATION":"53.2205","TLE_LINE2":"2 49431  53.2205  49.4208 0001700  53.1326 306.9822 15.08837748 50977","EPHEMERIS_TYPE":"0","OBJECT_ID":"2021-104Z","FILE":"3609636","REV_AT_EPOCH":"5097","SEMIMAJOR_AXIS":"6917.887","PERIAPSIS":"538.576","SITE":"AFETR","MEAN_MOTION_DDOT":"0.0000000000000","DECAY_DATE":null,"CLASSIFICATION_TYPE":"U","ARG_OF_PERICENTER":"53.1326","COUNTRY_CODE":"US","NORAD_CAT_ID":"49431","TIME_SYSTEM":"UTC","MEAN_MOTION_DOT":"0.00002339","MEAN_ELEMENT_THEORY":"SGP4","RA_OF_ASC_NODE":"49.4208","CENTER_NAME":"EARTH","LAUNCH_DATE":"2021-11-13","APOAPSIS":"540.928"},{"SITE":"AFETR","SEMIMAJOR_AXIS":"6917.927","PERIAPSIS":"538.062","REV_AT_EPOCH":"5108","FILE":"3609209","OBJECT_ID":"2021-104AA","EPHEMERIS_TYPE":"0","COUNTRY_CODE":"US","ARG_OF_PERICENTER":"29.3098","CLASSIFICATION_TYPE":"U","DECAY_DATE":null,"MEAN_MOTION_DDOT":"0.0000000000000","LAUNCH_DATE":"2021-11-13","CENTER_NAME":"EARTH","RA_OF_ASC_NODE":"40.2840","MEAN_ELEMENT_THEORY":"SGP4","MEAN_MOTION_DOT":"0.00002724","NORAD_CAT_ID":"49432","TIME_SYSTEM":"UTC","APOAPSIS":"541.521","MEAN_MOTION":"15.08824777","RCS_SIZE":"LARGE","BSTAR":"0.00018930000000","OBJECT_NAME":"STARLINK-3158","EPOCH":"2022-10-13T10:32:24.835776","ECCENTRICITY":"0.00025000","ELEMENT_SET_NO":"999","GP_ID":"214995623","REF_FRAME":"TEME","OBJECT_TYPE":"PAYLOAD","TLE_LINE1":"1 49432U 21104AA  22286.43917634  .00002724  00000-0  18930-3 0  9996","TLE_LINE2":"2 49432  53.2167  40.2840 0002500  29.3098 330.8034 15.08824777 51088","INCLINATION":"53.2167","MEAN_ANOMALY":"330.8034","PERIOD":"95.439"},{"RCS_SIZE":"LARGE","MEAN_MOTION":"15.08829852","EPOCH":"2022-10-13T13:43:07.715712","OBJECT_NAME":"STARLINK-3079","BSTAR":"0.00018879000000","ECCENTRICITY":"0.00026450","ELEMENT_SET_NO":"999","REF_FRAME":"TEME","GP_ID":"214993872","OBJECT_TYPE":"PAYLOAD","TLE_LINE1":"1 49433U 21104AB  22286.57161708  .00002717  00000-0  18879-3 0  9999","PERIOD":"95.438","MEAN_ANOMALY":"332.9839","INCLINATION":"53.2183","TLE_LINE2":"2 49433  53.2183  29.6972 0002645  27.1290 332.9839 15.08829852 52338","SEMIMAJOR_AXIS":"6917.911","PERIAPSIS":"537.947","SITE":"AFETR","EPHEMERIS_TYPE":"0","OBJECT_ID":"2021-104AB","REV_AT_EPOCH":"5233","FILE":"3609209","ARG_OF_PERICENTER":"27.1290","COUNTRY_CODE":"US","MEAN_MOTION_DDOT":"0.0000000000000","CLASSIFICATION_TYPE":"U","DECAY_DATE":null,"RA_OF_ASC_NODE":"29.6972","LAUNCH_DATE":"2021-11-13","CENTER_NAME":"EARTH","TIME_SYSTEM":"UTC","NORAD_CAT_ID":"49433","MEAN_MOTION_DOT":"0.00002717","MEAN_ELEMENT_THEORY":"SGP4","APOAPSIS":"541.606"},{"MEAN_ELEMENT_THEORY":"SGP4","MEAN_MOTION_DOT":"0.00002170","TIME_SYSTEM":"UTC","NORAD_CAT_ID":"49434","CENTER_NAME":"EARTH","LAUNCH_DATE":"2021-11-13","RA_OF_ASC_NODE":"49.5694","APOAPSIS":"541.087","REV_AT_EPOCH":"5205","FILE":"3609636","EPHEMERIS_TYPE":"0","OBJECT_ID":"2021-104AC","SITE":"AFETR","SEMIMAJOR_AXIS":"6917.868","PERIAPSIS":"538.379","CLASSIFICATION_TYPE":"U","DECAY_DATE":null,"MEAN_MOTION_DDOT":"0.0000000000000","COUNTRY_CODE":"US","ARG_OF_PERICENTER":"48.0024","TLE_LINE1":"1 49434U 21104AC  22286.60288372  .00002170  00000-0  15438-3 0  9992","OBJECT_TYPE":"PAYLOAD","INCLINATION":"53.2181","TLE_LINE2":"2 49434  53.2181  49.5694 0001957  48.0024 312.1134 15.08844069 52055","MEAN_ANOMALY":"312.1134","PERIOD":"95.437","BSTAR":"0.00015438000000","OBJECT_NAME":"STARLINK-3134","EPOCH":"2022-10-13T14:28:09.153408","MEAN_MOTION":"15.08844069","RCS_SIZE":"LARGE","GP_ID":"215027188","REF_FRAME":"TEME","ELEMENT_SET_NO":"999","ECCENTRICITY":"0.00019570"},{"GP_ID":"214995373","REF_FRAME":"TEME","ECCENTRICITY":"0.00020750","ELEMENT_SET_NO":"999","BSTAR":"0.00024380000000","OBJECT_NAME":"STARLINK-3117","EPOCH":"2022-10-13T10:39:01.758240","MEAN_MOTION":"15.08822256","RCS_SIZE":"LARGE","INCLINATION":"53.2174","TLE_LINE2":"2 49435  53.2174  30.2687 0002075  49.1057 311.0115 15.08822256 51226","PERIOD":"95.439","MEAN_ANOMALY":"311.0115","TLE_LINE1":"1 49435U 21104AD  22286.44377035  .00003592  00000-0  24380-3 0  9995","OBJECT_TYPE":"PAYLOAD","CLASSIFICATION_TYPE":"U","DECAY_DATE":null,"MEAN_MOTION_DDOT":"0.0000000000000","COUNTRY_CODE":"US","ARG_OF_PERICENTER":"49.1057","REV_AT_EPOCH":"5122","FILE":"3609209","EPHEMERIS_TYPE":"0","OBJECT_ID":"2021-104AD","SITE":"AFETR","SEMIMAJOR_AXIS":"6917.935","PERIAPSIS":"538.364","APOAPSIS":"541.235","MEAN_ELEMENT_THEORY":"SGP4","MEAN_MOTION_DOT":"0.00003592","TIME_SYSTEM":"UTC","NORAD_CAT_ID":"49435","CENTER_NAME":"EARTH","LAUNCH_DATE":"2021-11-13","RA_OF_ASC_NODE":"30.2687"},{"TLE_LINE1":"1 49436U 21104AE  22286.77401534  .00002427  00000-0  17057-3 0  9993","OBJECT_TYPE":"PAYLOAD","MEAN_ANOMALY":"319.7195","PERIOD":"95.438","INCLINATION":"53.2200","TLE_LINE2":"2 49436  53.2200  28.7826 0002026  40.3947 319.7195 15.08829943 51279","EPOCH":"2022-10-13T18:34:34.925376","BSTAR":"0.00017057000000","OBJECT_NAME":"STARLINK-3049","MEAN_MOTION":"15.08829943","RCS_SIZE":"LARGE","REF_FRAME":"TEME","GP_ID":"215028690","ELEMENT_SET_NO":"999","ECCENTRICITY":"0.00020260","MEAN_MOTION_DOT":"0.00002427","TIME_SYSTEM":"UTC","NORAD_CAT_ID":"49436","MEAN_ELEMENT_THEORY":"SGP4","RA_OF_ASC_NODE":"28.7826","LAUNCH_DATE":"2021-11-13","CENTER_NAME":"EARTH","APOAPSIS":"541.178","OBJECT_ID":"2021-104AE","EPHEMERIS_TYPE":"0","FILE":"3609636","REV_AT_EPOCH":"5127","SEMIMAJOR_AXIS":"6917.911","PERIAPSIS":"538.375","SITE":"AFETR","MEAN_MOTION_DDOT":"0.0000000000000","CLASSIFICATION_TYPE":"U","DECAY_DATE":null,"ARG_OF_PERICENTER":"40.3947","COUNTRY_CODE":"US"},{"REV_AT_EPOCH":"5122","FILE":"3609209","OBJECT_ID":"2021-104AF","EPHEMERIS_TYPE":"0","SITE":"AFETR","PERIAPSIS":"538.111","SEMIMAJOR_AXIS":"6917.882","DECAY_DATE":null,"CLASSIFICATION_TYPE":"U","MEAN_MOTION_DDOT":"0.0000000000000","COUNTRY_CODE":"US","ARG_OF_PERICENTER":"33.8677","MEAN_ELEMENT_THEORY":"SGP4","MEAN_MOTION_DOT":"0.00003516","TIME_SYSTEM":"UTC","NORAD_CAT_ID":"49437","LAUNCH_DATE":"2021-11-13","CENTER_NAME":"EARTH","RA_OF_ASC_NODE":"30.3151","APOAPSIS":"541.383","BSTAR":"0.00023890000000","OBJECT_NAME":"STARLINK-3130","EPOCH":"2022-10-13T10:27:02.870496","MEAN_MOTION":"15.08839437","RCS_SIZE":"LARGE","GP_ID":"214994372","REF_FRAME":"TEME","ELEMENT_SET_NO":"999","ECCENTRICITY":"0.00023650","TLE_LINE1":"1 49437U 21104AF  22286.43544989  .00003516  00000-0  23890-3 0  9991","OBJECT_TYPE":"PAYLOAD","TLE_LINE2":"2 49437  53.2176  30.3151 0002365  33.8677 326.2465 15.08839437 51222","INCLINATION":"53.2176","MEAN_ANOMALY":"326.2465","PERIOD":"95.438"}];
